{
  "type": "FeatureCollection",
  "features": [
    {
      "type": "Feature",
      "properties": {
        "norad_id": 30940,
        "name": "FENGYUN 1C DEB",
        "group": "fengyun-1c-debris",
        "lat": 73.80210316973668,
        "lon": -37.08501846973033,
        "alt_km": 860.148991993532,
        "timestamp": "2025-12-20T09:36:01.925099+00:00",
        "meta_object_name": "FENGYUN 1C DEB",
        "meta_object_id": "1999-025BAE",
        "meta_epoch": "2025-12-19T11:47:40.505856",
        "meta_mean_motion": 14.08314856,
        "meta_eccentricity": 0.0040825,
        "meta_inclination": 98.6224,
        "meta_ra_of_asc_node": 353.5356,
        "meta_arg_of_pericenter": 344.5495,
        "meta_mean_anomaly": 167.3735,
        "meta_ephemeris_type": 0,
        "meta_classification_type": "U",
        "meta_norad_cat_id": 30940,
        "meta_element_set_no": 999,
        "meta_rev_at_epoch": 96227,
        "meta_bstar": 0.00030983,
        "meta_mean_motion_dot": 4.92e-06,
        "meta_mean_motion_ddot": 0,
        "tle_line1": "1 30940U 99025BAE 25353.49144104  .00000492  00000+0  30983-3 0  9996",
        "tle_line2": "2 30940  98.6224 353.5356 0040825 344.5495 167.3735 14.08314856962270"
      },
      "geometry": {
        "type": "Point",
        "coordinates": [
          -37.08501846973033,
          73.80210316973668
        ]
      }
    },
    {
      "type": "Feature",
      "properties": {
        "norad_id": 30941,
        "name": "FENGYUN 1C DEB",
        "group": "fengyun-1c-debris",
        "lat": 77.01260037181356,
        "lon": 170.40419806392705,
        "alt_km": 800.6072071617646,
        "timestamp": "2025-12-20T09:36:01.925109+00:00",
        "meta_object_name": "FENGYUN 1C DEB",
        "meta_object_id": "1999-025BAF",
        "meta_epoch": "2025-12-19T01:20:41.519904",
        "meta_mean_motion": 14.31096185,
        "meta_eccentricity": 0.00336135,
        "meta_inclination": 98.546,
        "meta_ra_of_asc_node": 209.773,
        "meta_arg_of_pericenter": 298.6142,
        "meta_mean_anomaly": 61.1661,
        "meta_ephemeris_type": 0,
        "meta_classification_type": "U",
        "meta_norad_cat_id": 30941,
        "meta_element_set_no": 999,
        "meta_rev_at_epoch": 96716,
        "meta_bstar": 0.0014340473,
        "meta_mean_motion_dot": 3.761e-05,
        "meta_mean_motion_ddot": 0,
        "tle_line1": "1 30941U 99025BAF 25353.05603611  .00003761  00000+0  14340-2 0  9992",
        "tle_line2": "2 30941  98.5460 209.7730 0033613 298.6142  61.1661 14.31096185967165"
      },
      "geometry": {
        "type": "Point",
        "coordinates": [
          170.40419806392705,
          77.01260037181356
        ]
      }
    },
    {
      "type": "Feature",
      "properties": {
        "norad_id": 30942,
        "name": "FENGYUN 1C DEB",
        "group": "fengyun-1c-debris",
        "lat": -1.269759734762697,
        "lon": -7.373132821814105,
        "alt_km": 837.0700205826251,
        "timestamp": "2025-12-20T09:36:01.925120+00:00",
        "meta_object_name": "FENGYUN 1C DEB",
        "meta_object_id": "1999-025BAG",
        "meta_epoch": "2025-12-19T19:08:36.140064",
        "meta_mean_motion": 14.1484447,
        "meta_eccentricity": 0.01380395,
        "meta_inclination": 98.6797,
        "meta_ra_of_asc_node": 351.8469,
        "meta_arg_of_pericenter": 86.2543,
        "meta_mean_anomaly": 87.6817,
        "meta_ephemeris_type": 0,
        "meta_classification_type": "U",
        "meta_norad_cat_id": 30942,
        "meta_element_set_no": 999,
        "meta_rev_at_epoch": 96744,
        "meta_bstar": 0.00017467678,
        "meta_mean_motion_dot": 3.28e-06,
        "meta_mean_motion_ddot": 0,
        "tle_line1": "1 30942U 99025BAG 25353.79764051  .00000328  00000+0  17468-3 0  9991",
        "tle_line2": "2 30942  98.6797 351.8469 0138039  86.2543  87.6817 14.14844470967448"
      },
      "geometry": {
        "type": "Point",
        "coordinates": [
          -7.373132821814105,
          -1.269759734762697
        ]
      }
    },
    {
      "type": "Feature",
      "properties": {
        "norad_id": 30943,
        "name": "FENGYUN 1C DEB",
        "group": "fengyun-1c-debris",
        "lat": 52.75671585182782,
        "lon": -3.671041464143507,
        "alt_km": 836.9360576869976,
        "timestamp": "2025-12-20T09:36:01.925130+00:00",
        "meta_object_name": "FENGYUN 1C DEB",
        "meta_object_id": "1999-025BAH",
        "meta_epoch": "2025-12-18T19:44:02.580576",
        "meta_mean_motion": 14.04495482,
        "meta_eccentricity": 0.00507156,
        "meta_inclination": 98.7975,
        "meta_ra_of_asc_node": 6.5539,
        "meta_arg_of_pericenter": 48.9786,
        "meta_mean_anomaly": 311.5749,
        "meta_ephemeris_type": 0,
        "meta_classification_type": "U",
        "meta_norad_cat_id": 30943,
        "meta_element_set_no": 999,
        "meta_rev_at_epoch": 95827,
        "meta_bstar": 0.00035363843,
        "meta_mean_motion_dot": 5.28e-06,
        "meta_mean_motion_ddot": 0,
        "tle_line1": "1 30943U 99025BAH 25352.82225209  .00000528  00000+0  35364-3 0  9999",
        "tle_line2": "2 30943  98.7975   6.5539 0050715  48.9786 311.5749 14.04495482958276"
      },
      "geometry": {
        "type": "Point",
        "coordinates": [
          -3.671041464143507,
          52.75671585182782
        ]
      }
    },
    {
      "type": "Feature",
      "properties": {
        "norad_id": 30944,
        "name": "FENGYUN 1C DEB",
        "group": "fengyun-1c-debris",
        "lat": 61.455897245903294,
        "lon": -112.84231247777093,
        "alt_km": 629.3008994180918,
        "timestamp": "2025-12-20T09:36:01.925140+00:00",
        "meta_object_name": "FENGYUN 1C DEB",
        "meta_object_id": "1999-025BAJ",
        "meta_epoch": "2025-12-19T22:18:44.630208",
        "meta_mean_motion": 14.52453365,
        "meta_eccentricity": 0.0149302,
        "meta_inclination": 98.8493,
        "meta_ra_of_asc_node": 50.0189,
        "meta_arg_of_pericenter": 79.0652,
        "meta_mean_anomaly": 99.1496,
        "meta_ephemeris_type": 0,
        "meta_classification_type": "U",
        "meta_norad_cat_id": 30944,
        "meta_element_set_no": 999,
        "meta_rev_at_epoch": 99180,
        "meta_bstar": 9.7802756e-05,
        "meta_mean_motion_dot": 4.04e-06,
        "meta_mean_motion_ddot": 0,
        "tle_line1": "1 30944U 99025BAJ 25353.92968322  .00000404  00000+0  97803-4 0  9992",
        "tle_line2": "2 30944  98.8493  50.0189 0149302  79.0652  99.1496 14.52453365991807"
      },
      "geometry": {
        "type": "Point",
        "coordinates": [
          -112.84231247777093,
          61.455897245903294
        ]
      }
    },
    {
      "type": "Feature",
      "properties": {
        "norad_id": 30945,
        "name": "FENGYUN 1C DEB",
        "group": "fengyun-1c-debris",
        "lat": -37.25144174278738,
        "lon": 10.888150680446621,
        "alt_km": 786.1186284005917,
        "timestamp": "2025-12-20T09:36:01.925150+00:00",
        "meta_object_name": "FENGYUN 1C DEB",
        "meta_object_id": "1999-025BAK",
        "meta_epoch": "2025-12-19T06:59:47.956992",
        "meta_mean_motion": 14.2976616,
        "meta_eccentricity": 0.0030455,
        "meta_inclination": 99.3889,
        "meta_ra_of_asc_node": 2.4658,
        "meta_arg_of_pericenter": 20.0762,
        "meta_mean_anomaly": 0.0251,
        "meta_ephemeris_type": 0,
        "meta_classification_type": "U",
        "meta_norad_cat_id": 30945,
        "meta_element_set_no": 999,
        "meta_rev_at_epoch": 96531,
        "meta_bstar": 0.0012265,
        "meta_mean_motion_dot": 3.116e-05,
        "meta_mean_motion_ddot": 0,
        "tle_line1": "1 30945U 99025BAK 25353.29152728  .00003116  00000+0  12265-2 0  9998",
        "tle_line2": "2 30945  99.3889   2.4658 0030455  20.0762   0.0251 14.29766160965312"
      },
      "geometry": {
        "type": "Point",
        "coordinates": [
          10.888150680446621,
          -37.25144174278738
        ]
      }
    },
    {
      "type": "Feature",
      "properties": {
        "norad_id": 30946,
        "name": "FENGYUN 1C DEB",
        "group": "fengyun-1c-debris",
        "lat": 62.090796576085815,
        "lon": 92.62947759456334,
        "alt_km": 743.1782980687858,
        "timestamp": "2025-12-20T09:36:01.925160+00:00",
        "meta_object_name": "FENGYUN 1C DEB",
        "meta_object_id": "1999-025BAL",
        "meta_epoch": "2025-12-19T07:02:00.718368",
        "meta_mean_motion": 14.48183979,
        "meta_eccentricity": 0.0089544,
        "meta_inclination": 99.0393,
        "meta_ra_of_asc_node": 108.9364,
        "meta_arg_of_pericenter": 173.4604,
        "meta_mean_anomaly": 243.2683,
        "meta_ephemeris_type": 0,
        "meta_classification_type": "U",
        "meta_norad_cat_id": 30946,
        "meta_element_set_no": 999,
        "meta_rev_at_epoch": 98446,
        "meta_bstar": 0.00053284,
        "meta_mean_motion_dot": 2.036e-05,
        "meta_mean_motion_ddot": 0,
        "tle_line1": "1 30946U 99025BAL 25353.29306387  .00002036  00000+0  53284-3 0  9998",
        "tle_line2": "2 30946  99.0393 108.9364 0089544 173.4604 243.2683 14.48183979984466"
      },
      "geometry": {
        "type": "Point",
        "coordinates": [
          92.62947759456334,
          62.090796576085815
        ]
      }
    }
  ]
}